{"type": "FeatureCollection", "features": [ {"type": "Feature", "properties": {"norad_id": 66349, "name": "STARLINK-35848", "group": "last-30-days", "lat": 20.29663704134591, "lon": 108.61624659621047, "alt_km": 416.52490943542125, "timestamp": "2025-12-06T20:37:54.811108+00:00", "meta": {"OBJECT_NAME": "STARLINK-35848", "OBJECT_ID": "2025-254B", "EPOCH": "2025-12-06T14:00:01.999872", "MEAN_MOTION": 15.49357525, "ECCENTRICITY": 0.00010343, "INCLINATION": 53.1602, "RA_OF_ASC_NODE": 306.0356, "ARG_OF_PERICENTER": 80.1703, "MEAN_ANOMALY": 332.0505, "EPHEMERIS_TYPE": 0, "CLASSIFICATION_TYPE": "U", "NORAD_CAT_ID": 66349, "ELEMENT_SET_NO": 999, "REV_AT_EPOCH": 593, "BSTAR": -0.0023224872, "MEAN_MOTION_DOT": -0.00127744, "MEAN_MOTION_DDOT": 0}, "tle": {"line1": "1 66349U 25254B   25340.58335648 -.00127744  00000+0 -23225-2 0  9994", "line2": "2 66349  53.1602 306.0356 0001034  80.1703 332.0505 15.49357525  5938"}}, "geometry": {"type": "Point", "coordinates": [108.61624659621047, 20.29663704134591]}}, {"type": "Feature", "properties": {"norad_id": 66350, "name": "STARLINK-35829", "group": "last-30-days", "lat": 18.82101108627403, "lon": 109.90484556112445, "alt_km": 416.76765276225706, "timestamp": "2025-12-06T20:37:54.811119+00:00", "meta": {"OBJECT_NAME": "STARLINK-35829", "OBJECT_ID": "2025-254C", "EPOCH": "2025-12-06T14:00:01.999872", "MEAN_MOTION": 15.49355141, "ECCENTRICITY": 0.00010361, "INCLINATION": 53.1604, "RA_OF_ASC_NODE": 306.0313, "ARG_OF_PERICENTER": 80.6615, "MEAN_ANOMALY": 333.4709, "EPHEMERIS_TYPE": 0, "CLASSIFICATION_TYPE": "U", "NORAD_CAT_ID": 66350, "ELEMENT_SET_NO": 999, "REV_AT_EPOCH": 593, "BSTAR": -0.0021511826, "MEAN_MOTION_DOT": -0.00118484, "MEAN_MOTION_DDOT": 0}, "tle": {"line1": "1 66350U 25254C   25340.58335648 -.00118484  00000+0 -21512-2 0  9994", "line2": "2 66350  53.1604 306.0313 0001036  80.6615 333.4709 15.49355141  5937"}}, "geometry": {"type": "Point", "coordinates": [109.90484556112445, 18.82101108627403]}}, {"type": "Feature", "properties": {"norad_id": 66351, "name": "STARLINK-35828", "group": "last-30-days", "lat": 17.3297517575542, "lon": 111.1776283955502, "alt_km": 416.7592266235788, "timestamp": "2025-12-06T20:37:54.811131+00:00", "meta": {"OBJECT_NAME": "STARLINK-35828", "OBJECT_ID": "2025-254D", "EPOCH": "2025-12-06T14:00:01.999872", "MEAN_MOTION": 15.49351011, "ECCENTRICITY": 0.00013708, "INCLINATION": 53.1603, "RA_OF_ASC_NODE": 306.0281, "ARG_OF_PERICENTER": 95.4146, "MEAN_ANOMALY": 320.6398, "EPHEMERIS_TYPE": 0, "CLASSIFICATION_TYPE": "U", "NORAD_CAT_ID": 66351, "ELEMENT_SET_NO": 999, "REV_AT_EPOCH": 590, "BSTAR": -0.0021214298, "MEAN_MOTION_DOT": -0.00116862, "MEAN_MOTION_DDOT": 0}, "tle": {"line1": "1 66351U 25254D   25340.58335648 -.00116862  00000+0 -21214-2 0  9992", "line2": "2 66351  53.1603 306.0281 0001370  95.4146 320.6398 15.49351011  5906"}}, "geometry": {"type": "Point", "coordinates": [111.1776283955502, 17.3297517575542]}}, {"type": "Feature", "properties": {"norad_id": 66352, "name": "STARLINK-35850", "group": "last-30-days", "lat": 15.827963218661122, "lon": 112.43107852809193, "alt_km": 417.0469632735376, "timestamp": "2025-12-06T20:37:54.811144+00:00", "meta": {"OBJECT_NAME": "STARLINK-35850", "OBJECT_ID": "2025-254E", "EPOCH": "2025-12-06T14:00:01.999872", "MEAN_MOTION": 15.49356972, "ECCENTRICITY": 0.00014662, "INCLINATION": 53.1603, "RA_OF_ASC_NODE": 306.024, "ARG_OF_PERICENTER": 92.134, "MEAN_ANOMALY": 325.8406, "EPHEMERIS_TYPE": 0, "CLASSIFICATION_TYPE": "U", "NORAD_CAT_ID": 66352, "ELEMENT_SET_NO": 999, "REV_AT_EPOCH": 588, "BSTAR": -0.0023567595, "MEAN_MOTION_DOT": -0.00129595, "MEAN_MOTION_DDOT": 0}, "tle": {"line1": "1 66352U 25254E   25340.58335648 -.00129595  00000+0 -23568-2 0  9994", "line2": "2 66352  53.1603 306.0240 0001466  92.1340 325.8406 15.49356972  5883"}}, "geometry": {"type": "Point", "coordinates": [112.43107852809193, 15.827963218661122]}}, {"type": "Feature", "properties": {"norad_id": 66353, "name": "STARLINK-35869", "group": "last-30-days", "lat": 14.324564427325198, "lon": 113.6609987272733, "alt_km": 417.3435136633125, "timestamp": "2025-12-06T20:37:54.811155+00:00", "meta": {"OBJECT_NAME": "STARLINK-35869", "OBJECT_ID": "2025-254F", "EPOCH": "2025-12-06T14:00:01.999872", "MEAN_MOTION": 15.49354862, "ECCENTRICITY": 0.00014956, "INCLINATION": 53.1602, "RA_OF_ASC_NODE": 306.0195, "ARG_OF_PERICENTER": 89.8045, "MEAN_ANOMALY": 330.0879, "EPHEMERIS_TYPE": 0, "CLASSIFICATION_TYPE": "U", "NORAD_CAT_ID": 66353, "ELEMENT_SET_NO": 999, "REV_AT_EPOCH": 593, "BSTAR": -0.0023080442, "MEAN_MOTION_DOT": -0.00126959, "MEAN_MOTION_DDOT": 0}, "tle": {"line1": "1 66353U 25254F   25340.58335648 -.00126959  00000+0 -23080-2 0  9995", "line2": "2 66353  53.1602 306.0195 0001495  89.8045 330.0879 15.49354862  5933"}}, "geometry": {"type": "Point", "coordinates": [113.6609987272733, 14.324564427325198]}}, {"type": "Feature", "properties": {"norad_id": 66354, "name": "STARLINK-35895", "group": "last-30-days", "lat": -52.56071164024024, "lon": -133.10919531819476, "alt_km": 424.3888594076334, "timestamp": "2025-12-06T20:37:54.811166+00:00", "meta": {"OBJECT_NAME": "STARLINK-35895", "OBJECT_ID": "2025-254G", "EPOCH": "2025-12-06T14:00:01.999872", "MEAN_MOTION": 15.49332356, "ECCENTRICITY": 0.00011098, "INCLINATION": 53.1594, "RA_OF_ASC_NODE": 306.5124, "ARG_OF_PERICENTER": 85.6249, "MEAN_ANOMALY": 89.5022, "EPHEMERIS_TYPE": 0, "CLASSIFICATION_TYPE": "U", "NORAD_CAT_ID": 66354, "ELEMENT_SET_NO": 999, "REV_AT_EPOCH": 593, "BSTAR": -0.0018493747, "MEAN_MOTION_DOT": -0.00102055, "MEAN_MOTION_DDOT": 0}, "tle": {"line1": "1 66354U 25254G   25340.58335648 -.00102055  00000+0 -18494-2 0  9990", "line2": "2 66354  53.1594 306.5124 0001109  85.6249  89.5022 15.49332356  5933"}}, "geometry": {"type": "Point", "coordinates": [-133.10919531819476, -52.56071164024024]}}, {"type": "Feature", "properties": {"norad_id": 66355, "name": "STARLINK-35861", "group": "last-30-days", "lat": 11.305283358300635, "lon": 116.06950210864589, "alt_km": 418.1401222347831, "timestamp": "2025-12-06T20:37:54.811183+00:00", "meta": {"OBJECT_NAME": "STARLINK-35861", "OBJECT_ID": "2025-254H", "EPOCH": "2025-12-06T14:00:01.999872", "MEAN_MOTION": 15.49359859, "ECCENTRICITY": 0.00010617, "INCLINATION": 53.1602, "RA_OF_ASC_NODE": 306.011, "ARG_OF_PERICENTER": 73.1203, "MEAN_ANOMALY": 350.5998, "EPHEMERIS_TYPE": 0, "CLASSIFICATION_TYPE": "U", "NORAD_CAT_ID": 66355, "ELEMENT_SET_NO": 999, "REV_AT_EPOCH": 593, "BSTAR": -0.0023701476, "MEAN_MOTION_DOT": -0.00130324, "MEAN_MOTION_DDOT": 0}, "tle": {"line1": "1 66355U 25254H   25340.58335648 -.00130324  00000+0 -23701-2 0  9998", "line2": "2 66355  53.1602 306.0110 0001061  73.1203 350.5998 15.49359859  5933"}}, "geometry": {"type": "Point", "coordinates": [116.06950210864589, 11.305283358300635]}}, {"type": "Feature", "properties": {"norad_id": 66356, "name": "STARLINK-35851", "group": "last-30-days", "lat": 9.788666222334816, "lon": 117.25295192106148, "alt_km": 418.3607114881088, "timestamp": "2025-12-06T20:37:54.811195+00:00", "meta": {"OBJECT_NAME": "STARLINK-35851", "OBJECT_ID": "2025-254J", "EPOCH": "2025-12-06T14:00:01.999872", "MEAN_MOTION": 15.49359751, "ECCENTRICITY": 0.00010125, "INCLINATION": 53.1601, "RA_OF_ASC_NODE": 306.0063, "ARG_OF_PERICENTER": 74.8766, "MEAN_ANOMALY": 350.7563, "EPHEMERIS_TYPE": 0, "CLASSIFICATION_TYPE": "U", "NORAD_CAT_ID": 66356, "ELEMENT_SET_NO": 999, "REV_AT_EPOCH": 593, "BSTAR": -0.0022977911, "MEAN_MOTION_DOT": -0.00126421, "MEAN_MOTION_DDOT": 0}, "tle": {"line1": "1 66356U 25254J   25340.58335648 -.00126421  00000+0 -22978-2 0  9997", "line2": "2 66356  53.1601 306.0063 0001012  74.8766 350.7563 15.49359751  5939"}}, "geometry": {"type": "Point", "coordinates": [117.25295192106148, 9.788666222334816]}}, {"type": "Feature", "properties": {"norad_id": 66357, "name": "STARLINK-35817", "group": "last-30-days", "lat": 8.264286974211462, "lon": 118.42925396896192, "alt_km": 418.541008312126, "timestamp": "2025-12-06T20:37:54.811206+00:00", "meta": {"OBJECT_NAME": "STARLINK-35817", "OBJECT_ID": "2025-254K", "EPOCH": "2025-12-06T14:00:01.999872", "MEAN_MOTION": 15.49354123, "ECCENTRICITY": 0.00010556, "INCLINATION": 53.1601, "RA_OF_ASC_NODE": 306.0024, "ARG_OF_PERICENTER": 80.754, "MEAN_ANOMALY": 346.8, "EPHEMERIS_TYPE": 0, "CLASSIFICATION_TYPE": "U", "NORAD_CAT_ID": 66357, "ELEMENT_SET_NO": 999, "REV_AT_EPOCH": 593, "BSTAR": -0.002167552, "MEAN_MOTION_DOT": -0.00119364, "MEAN_MOTION_DDOT": 0}, "tle": {"line1": "1 66357U 25254K   25340.58335648 -.00119364  00000+0 -21676-2 0  9990", "line2": "2 66357  53.1601 306.0024 0001055  80.7540 346.8000 15.49354123  5930"}}, "geometry": {"type": "Point", "coordinates": [118.42925396896192, 8.264286974211462]}}, {"type": "Feature", "properties": {"norad_id": 66358, "name": "STARLINK-35807", "group": "last-30-days", "lat": 6.745882702325614, "lon": 119.58860950441759, "alt_km": 418.85291052219236, "timestamp": "2025-12-06T20:37:54.811217+00:00", "meta": {"OBJECT_NAME": "STARLINK-35807", "OBJECT_ID": "2025-254L", "EPOCH": "2025-12-06T14:00:01.999872", "MEAN_MOTION": 15.49338157, "ECCENTRICITY": 0.0001014, "INCLINATION": 53.1602, "RA_OF_ASC_NODE": 305.9978, "ARG_OF_PERICENTER": 75.1176, "MEAN_ANOMALY": 354.3512, "EPHEMERIS_TYPE": 0, "CLASSIFICATION_TYPE": "U", "NORAD_CAT_ID": 66358, "ELEMENT_SET_NO": 999, "REV_AT_EPOCH": 593, "BSTAR": -0.0016489311, "MEAN_MOTION_DOT": -0.00091185, "MEAN_MOTION_DDOT": 0}, "tle": {"line1": "1 66358U 25254L   25340.58335648 -.00091185  00000+0 -16489-2 0  9997", "line2": "2 66358  53.1602 305.9978 0001014  75.1176 354.3512 15.49338157  5937"}}, "geometry": {"type": "Point", "coordinates": [119.58860950441759, 6.745882702325614]}}]}